[{"OBJECT_NAME":"STARLINK-6250","OBJECT_ID":"2023-094N","EPOCH":"2026-03-09T22:00:01.999584","MEAN_MOTION":15.13757953,"ECCENTRICITY":7.742e-5,"INCLINATION":43.0004,"RA_OF_ASC_NODE":28.5902,"ARG_OF_PERICENTER":238.6118,"MEAN_ANOMALY":352.2453,"EPHEMERIS_TYPE":0,"CLASSIFICATION_TYPE":"U","NORAD_CAT_ID":57230,"ELEMENT_SET_NO":999,"REV_AT_EPOCH":558,"BSTAR":0.0042340714,"MEAN_MOTION_DOT":0.00078344,"MEAN_MOTION_DDOT":0},{"OBJECT_NAME":"METOP-A","OBJECT_ID":"2006-044A","EPOCH":"2026-03-09T22:42:22.748832","MEAN_MOTION":14.75579804,"ECCENTRICITY":0.01753829,"INCLINATION":98.3242,"RA_OF_ASC_NODE":172.6157,"ARG_OF_PERICENTER":26.1658,"MEAN_ANOMALY":115.682,"EPHEMERIS_TYPE":0,"CLASSIFICATION_TYPE":"U","NORAD_CAT_ID":29499,"ELEMENT_SET_NO":999,"REV_AT_EPOCH":1081,"BSTAR":0.00024290621,"MEAN_MOTION_DOT":2.062e-5,"MEAN_MOTION_DDOT":0}]
